KUIPER-00513            
1 69598U 26140G   26192.49680269  .00017859  00000+0  47758-3 0  9997
2 69598  51.8827 281.1561 0008155 328.7915  31.2587 15.38104537  4971
KUIPER-00516            
1 69599U 26140H   26192.50374938  .00025649  00000+0  69244-3 0  9993
2 69599  51.8803 281.1922 0007366 341.1517  18.9196 15.37577714  4975
KUIPER-00517            
1 69600U 26140J   26192.48320340  .00012000  00000+0  31752-3 0  9991
2 69600  51.8784 281.0559 0010469 277.8208  82.1591 15.38764093  4972
KUIPER-00520            
1 69601U 26140K   26192.50474869  .00025460  00000+0  68625-3 0  9994
2 69601  51.8831 281.2099 0007196 342.8598  17.2145 15.37632604  4970
KUIPER-00522            
1 69602U 26140L   26192.47956345  .00017490  00000+0  45974-3 0  9991
2 69602  51.8800 281.0380 0013385 249.8642 110.0905 15.38597501  4974
KUIPER-00528            
1 69603U 26140M   26192.50707241  .00013985  00000+0  38458-3 0  9999
2 69603  51.8778 281.2089 0005116 343.9191  16.1633 15.37455088  4971
KUIPER-00532            
1 69604U 26140N   26192.51618999  .00012765  00000+0  36200-3 0  9990
2 69604  51.8806 281.2725 0005544  20.6736 339.4474 15.36578858  4974
KUIPER-00533            
1 69605U 26140P   26192.49309684  .00038818  00000+0  10179-2 0  9999
2 69605  51.8809 281.1271 0009028 320.4663  39.5665 15.38250608  4976
KUIPER-00534            
1 69606U 26140Q   26192.47462227  .00011202  00000+0  29781-3 0  9999
2 69606  51.8818 281.0115 0013389 252.9579 106.9941 15.38662919  4971
KUIPER-00537            
1 69607U 26140R   26192.46944472  .00009492  00000+0  29212-3 0  9993
2 69607  51.8802 281.7133 0011060  42.2759 317.9077 15.34291050  4969
KUIPER-00538            
1 69608U 26140S   26192.50246875  .00021051  00000+0  56868-3 0  9993
2 69608  51.8822 281.1897 0006371 327.9844  32.0755 15.37685487  4973
KUIPER-00540            
1 69609U 26140T   26192.51255644  .00016914  00000+0  47064-3 0  9999
2 69609  51.8821 281.2557 0006244   9.3253 350.7848 15.36923544  4972
KUIPER-00541            
1 69610U 26140U   26191.90842681  .00013847  00000+0  36978-3 0  9990
2 69610  51.8827 283.9683 0008334 308.1236  51.8999 15.38356975  4888
KUIPER-00542            
1 69611U 26140V   26192.49158245  .00014597  00000+0  39086-3 0  9998
2 69611  51.8792 281.1153 0007316 290.5599  69.4603 15.38232951  4971
KUIPER-00543            
1 69612U 26140W   26190.63093524  .00011141  00000+0  31556-3 0  9997
2 69612  51.8763 290.3813 0007703  16.9946 343.1297 15.36747809  4681
KUIPER-00544            
1 69613U 26140X   26192.49579654  .00017604  00000+0  47072-3 0  9997
2 69613  51.8799 281.1405 0006517 305.8745  54.1636 15.38126834  4974
KUIPER-00546            
1 69614U 26140Y   26192.47534927  .00014418  00000+0  37818-3 0  9997
2 69614  51.8778 281.0095 0014292 248.5549 111.3914 15.38811771  4976
KUIPER-00547            
1 69615U 26140Z   26192.48934346  .00018399  00000+0  49517-3 0  9999
2 69615  51.8829 281.1078 0010836 274.0184  85.9564 15.37860222  4976
KUIPER-00549            
1 69616U 26140AA  26192.50837899  .00010152  00000+0  28361-3 0  9991
2 69616  51.8810 281.2228 0007938   2.2674 357.8347 15.37288332  4975
KUIPER-00550            
1 69617U 26140AB  26192.28430661  .00013605  00000+0  43294-3 0  9991
2 69617  51.8779 282.7098 0008094  47.3338 312.8327 15.32851397  4939
KUIPER-00551            
1 69618U 26140AC  26192.48213020  .00019820  00000+0  52325-3 0  9992
2 69618  51.8769 281.0519 0013312 245.8593 114.1003 15.38373333  4979
KUIPER-00554            
1 69619U 26140AD  26192.48764123  .00014472  00000+0  39109-3 0  9991
2 69619  51.8774 281.0869 0011337 276.6495  83.3201 15.37920416  4978
KUIPER-00555            
1 69620U 26140AE  26192.48489634  .00017500  00000+0  47103-3 0  9992
2 69620  51.8827 281.0782 0011377 265.5504  94.4183 15.37889447  4975
KUIPER-00556            
1 69621U 26140AF  26191.89993433  .00016169  00000+0  43068-3 0  9990
2 69621  51.8809 283.9056 0012047 253.3320 106.6344 15.38267241  4885
KUIPER-00557            
1 69622U 26140AG  26192.49247852  .00012516  00000+0  34424-3 0  9993
2 69622  51.8807 281.1278 0009914 288.6863  71.3047 15.37527254  4972
KUIPER-00560            
1 69623U 26140AH  26192.48527064  .00020916  00000+0  54482-3 0  9998
2 69623  51.8785 281.0770 0008579 288.7924  71.2132 15.38800028  4977
KUIPER-00561            
1 69624U 26140AJ  26192.48784363  .00017030  00000+0  44754-3 0  9990
2 69624  51.8816 281.0957 0008102 288.5262  71.4845 15.38678942  4976
KUIPER-00564            
1 69625U 26140AK  26192.48878793  .00012368  00000+0  34309-3 0  9996
2 69625  51.8807 281.1013 0009512 285.7072  74.2865 15.37276012  4979
KUIPER-00567            
1 69626U 26140AL  26191.76783135  .00213007  00000+0  54503-2 0  9992
2 69626  51.8786 284.5160 0014214 269.5283  90.4076 15.37993440  4868
KUIPER-00573            
1 69627U 26140AM  26192.49611576  .00014175  00000+0  38988-3 0  9998
2 69627  51.8794 281.1424 0009231 272.3380  87.6550 15.37412133  4979
