OBJECT_NAME,OBJECT_ID,EPOCH,MEAN_MOTION,ECCENTRICITY,INCLINATION,RA_OF_ASC_NODE,ARG_OF_PERICENTER,MEAN_ANOMALY,EPHEMERIS_TYPE,CLASSIFICATION_TYPE,NORAD_CAT_ID,ELEMENT_SET_NO,REV_AT_EPOCH,BSTAR,MEAN_MOTION_DOT,MEAN_MOTION_DDOT
KUIPER-00513,2026-140G,2026-07-11T11:55:23.752416,15.38104537,.0008155,51.8827,281.1561,328.7915,31.2587,0,U,69598,999,497,.47758E-3,.17859E-3,0
KUIPER-00516,2026-140H,2026-07-11T12:05:23.946432,15.37577714,.0007366,51.8803,281.1922,341.1517,18.9196,0,U,69599,999,497,.69244E-3,.25649E-3,0
KUIPER-00517,2026-140J,2026-07-11T11:35:48.773760,15.38764093,.0010469,51.8784,281.0559,277.8208,82.1591,0,U,69600,999,497,.31752E-3,.12E-3,0
KUIPER-00520,2026-140K,2026-07-11T12:06:50.286816,15.37632604,.0007196,51.8831,281.2099,342.8598,17.2145,0,U,69601,999,497,.68625E-3,.2546E-3,0
KUIPER-00522,2026-140L,2026-07-11T11:30:34.282080,15.38597501,.0013385,51.8800,281.0380,249.8642,110.0905,0,U,69602,999,497,.45974E-3,.1749E-3,0
KUIPER-00528,2026-140M,2026-07-11T12:10:11.056224,15.37455088,.0005116,51.8778,281.2089,343.9191,16.1633,0,U,69603,999,497,.38458E-3,.13985E-3,0
KUIPER-00532,2026-140N,2026-07-11T12:23:18.815136,15.36578858,.0005544,51.8806,281.2725,20.6736,339.4474,0,U,69604,999,497,.362E-3,.12765E-3,0
KUIPER-00533,2026-140P,2026-07-11T11:50:03.566976,15.38250608,.0009028,51.8809,281.1271,320.4663,39.5665,0,U,69605,999,497,.10179E-2,.38818E-3,0
KUIPER-00534,2026-140Q,2026-07-11T11:23:27.364128,15.38662919,.0013389,51.8818,281.0115,252.9579,106.9941,0,U,69606,999,497,.29781E-3,.11202E-3,0
KUIPER-00537,2026-140R,2026-07-11T11:16:00.023808,15.34291050,.001106,51.8802,281.7133,42.2759,317.9077,0,U,69607,999,496,.29212E-3,.9492E-4,0
KUIPER-00538,2026-140S,2026-07-11T12:03:33.300000,15.37685487,.0006371,51.8822,281.1897,327.9844,32.0755,0,U,69608,999,497,.56868E-3,.21051E-3,0
KUIPER-00540,2026-140T,2026-07-11T12:18:04.876416,15.36923544,.0006244,51.8821,281.2557,9.3253,350.7848,0,U,69609,999,497,.47064E-3,.16914E-3,0
KUIPER-00541,2026-140U,2026-07-10T21:48:08.076384,15.38356975,.0008334,51.8827,283.9683,308.1236,51.8999,0,U,69610,999,488,.36978E-3,.13847E-3,0
KUIPER-00542,2026-140V,2026-07-11T11:47:52.723680,15.38232951,.0007316,51.8792,281.1153,290.5599,69.4603,0,U,69611,999,497,.39086E-3,.14597E-3,0
KUIPER-00543,2026-140W,2026-07-09T15:08:32.804736,15.36747809,.00077039,51.8763,290.3813,16.9946,343.1297,0,U,69612,999,468,.31555921E-3,.11141E-3,0
KUIPER-00544,2026-140X,2026-07-11T11:53:56.821056,15.38126834,.0006517,51.8799,281.1405,305.8745,54.1636,0,U,69613,999,497,.47072E-3,.17604E-3,0
KUIPER-00546,2026-140Y,2026-07-11T11:24:30.176928,15.38811771,.0014292,51.8778,281.0095,248.5549,111.3914,0,U,69614,999,497,.37818E-3,.14418E-3,0
KUIPER-00547,2026-140Z,2026-07-11T11:44:39.274944,15.37860222,.0010836,51.8829,281.1078,274.0184,85.9564,0,U,69615,999,497,.49517E-3,.18399E-3,0
KUIPER-00549,2026-140AA,2026-07-11T12:12:03.944736,15.37288332,.0007938,51.8810,281.2228,2.2674,357.8347,0,U,69616,999,497,.28361E-3,.10152E-3,0
KUIPER-00550,2026-140AB,2026-07-11T06:49:24.091104,15.32851397,.0008094,51.8779,282.7098,47.3338,312.8327,0,U,69617,999,493,.43294E-3,.13605E-3,0
KUIPER-00551,2026-140AC,2026-07-11T11:34:16.049280,15.38373333,.0013312,51.8769,281.0519,245.8593,114.1003,0,U,69618,999,497,.52325E-3,.1982E-3,0
KUIPER-00554,2026-140AD,2026-07-11T11:42:12.202272,15.37920416,.0011337,51.8774,281.0869,276.6495,83.3201,0,U,69619,999,497,.39109E-3,.14472E-3,0
KUIPER-00555,2026-140AE,2026-07-11T11:38:15.043776,15.37889447,.0011377,51.8827,281.0782,265.5504,94.4183,0,U,69620,999,497,.47103E-3,.175E-3,0
KUIPER-00556,2026-140AF,2026-07-10T21:35:54.326112,15.38267241,.0012047,51.8809,283.9056,253.3320,106.6344,0,U,69621,999,488,.43068E-3,.16169E-3,0
KUIPER-00557,2026-140AG,2026-07-11T11:49:10.144128,15.37527254,.0009914,51.8807,281.1278,288.6863,71.3047,0,U,69622,999,497,.34424E-3,.12516E-3,0
KUIPER-00560,2026-140AH,2026-07-11T11:38:47.383296,15.38800028,.0008579,51.8785,281.0770,288.7924,71.2132,0,U,69623,999,497,.54482E-3,.20916E-3,0
KUIPER-00561,2026-140AJ,2026-07-11T11:42:29.689632,15.38678942,.0008102,51.8816,281.0957,288.5262,71.4845,0,U,69624,999,497,.44754E-3,.1703E-3,0
KUIPER-00564,2026-140AK,2026-07-11T11:43:51.277152,15.37276012,.0009512,51.8807,281.1013,285.7072,74.2865,0,U,69625,999,497,.34309E-3,.12368E-3,0
KUIPER-00567,2026-140AL,2026-07-10T18:25:40.628640,15.37993440,.0014214,51.8786,284.5160,269.5283,90.4076,0,U,69626,999,486,.54503E-2,.213007E-2,0
KUIPER-00573,2026-140AM,2026-07-11T11:54:24.401664,15.37412133,.0009231,51.8794,281.1424,272.3380,87.6550,0,U,69627,999,497,.38988E-3,.14175E-3,0
